IRIDIUM 159             
1 43578U 18061K   24158.33433194  .00000416  00000+0  14156-3 0  9993
2 43578  86.3979   6.3195 0002358  81.6434 278.5029 14.34220164307199
IRIDIUM 180             
1 43922U 19002A   24158.47336628  .00000138  00000+0  42315-4 0  9991
2 43922  86.3948 303.1423 0002216  89.8068 270.3382 14.34218209282827
IRIDIUM 176             
1 43923U 19002B   24158.44692904  .00001702  00000+0  26591-3 0  9996
2 43923  86.6075 303.1756 0002319  87.5383 272.6100 14.72268882290264
IRIDIUM 168             
1 43924U 19002C   24158.46702490  .00000011  00000+0 -32465-5 0  9993
2 43924  86.3952 303.2015 0002313  94.8274 265.3186 14.34217755282804
IRIDIUM 173             
1 43925U 19002D   24158.45433991  .00000158  00000+0  49425-4 0  9994
2 43925  86.3947 303.1257 0002223  88.9939 271.1511 14.34216152282782
IRIDIUM 169             
1 43926U 19002E   24158.48338626  .00000392  00000+0  12173-3 0  9996
2 43926  86.4215 334.7403 0000099  94.7808 265.3402 14.38591398283736
IRIDIUM 172             
1 43927U 19002F   24158.44799690  .00000112  00000+0  33103-4 0  9992
2 43927  86.3948 303.1342 0002274  90.9621 269.1836 14.34217911282799
IRIDIUM 175             
1 43928U 19002G   24158.57713641  .00001899  00000+0  29706-3 0  9995
2 43928  86.1499 276.8558 0001874  96.5094 263.6336 14.72261205290278
